KUIPER-00061            
1 64521U 25134X   25209.60208005  .00027106  00000+0  77919-3 0  9993
2 64521  51.8740 161.5422 0004893 233.9121 126.1412 15.35603190  6186
KUIPER-00062            
1 64522U 25134Y   25209.91668981 -.00216014  00000+0 -68164-2 0  9992
2 64522  51.8769 159.9788 0004387 228.3272 100.7618 15.33181578  6227
KUIPER-00063            
1 64523U 25134Z   25209.58302767  .00025040  00000+0  70551-3 0  9992
2 64523  51.8752 161.4213 0002625 186.1008 173.9947 15.36282431  6187
KUIPER-00064            
1 64524U 25134AA  25209.56957438  .00027377  00000+0  75028-3 0  9991
2 64524  51.8783 161.3330 0001459 132.1962 227.9149 15.37096944  6643
KUIPER-00065            
1 64525U 25134AB  25209.91668981 -.01167908  00000+0 -40302-1 0  9996
2 64525  51.8712 160.2194 0007177 233.3993 321.1094 15.32444167  6468
KUIPER-00066            
1 64526U 25134AC  25209.57529989  .00024775  00000+0  68674-3 0  9998
2 64526  51.8764 161.3726 0001125 162.6705 197.4320 15.36799667  6649
KUIPER-00069            
1 64816U 25151A   25209.56643465  .00008868  00000+0  26267-3 0  9991
2 64816  51.8777 228.2970 0005222 178.6385 181.4616 15.35631936  3069
KUIPER-00070            
1 64817U 25151B   25209.76733598 -.00191877  00000+0 -57831-2 0  9996
2 64817  51.8778 227.3901 0004544 193.4955 166.5910 15.34519028  3099
